[{"OBJECT_NAME":"NETSAT-4","OBJECT_ID":"2020-068U","EPOCH":"2026-03-05T22:52:05.631744","MEAN_MOTION":15.40187514,"ECCENTRICITY":0.00052131,"INCLINATION":97.8639,"RA_OF_ASC_NODE":65.1748,"ARG_OF_PERICENTER":354.3518,"MEAN_ANOMALY":5.7667,"EPHEMERIS_TYPE":0,"CLASSIFICATION_TYPE":"U","NORAD_CAT_ID":46504,"ELEMENT_SET_NO":999,"REV_AT_EPOCH":29986,"BSTAR":0.0005351893,"MEAN_MOTION_DOT":0.00021436,"MEAN_MOTION_DDOT":0},{"OBJECT_NAME":"NETSAT-3","OBJECT_ID":"2020-068V","EPOCH":"2026-03-05T22:33:38.065824","MEAN_MOTION":15.38845736,"ECCENTRICITY":0.00056184,"INCLINATION":97.8676,"RA_OF_ASC_NODE":63.5251,"ARG_OF_PERICENTER":11.7997,"MEAN_ANOMALY":348.3378,"EPHEMERIS_TYPE":0,"CLASSIFICATION_TYPE":"U","NORAD_CAT_ID":46505,"ELEMENT_SET_NO":999,"REV_AT_EPOCH":29978,"BSTAR":0.00057244048,"MEAN_MOTION_DOT":0.0002195,"MEAN_MOTION_DDOT":0},{"OBJECT_NAME":"NETSAT-1","OBJECT_ID":"2020-068W","EPOCH":"2026-03-05T23:05:10.055616","MEAN_MOTION":15.31881118,"ECCENTRICITY":0.00062889,"INCLINATION":97.8743,"RA_OF_ASC_NODE":59.0235,"ARG_OF_PERICENTER":30.7972,"MEAN_ANOMALY":329.3636,"EPHEMERIS_TYPE":0,"CLASSIFICATION_TYPE":"U","NORAD_CAT_ID":46506,"ELEMENT_SET_NO":999,"REV_AT_EPOCH":29948,"BSTAR":0.00055279957,"MEAN_MOTION_DOT":0.0001696,"MEAN_MOTION_DDOT":0},{"OBJECT_NAME":"NETSAT-2","OBJECT_ID":"2020-068X","EPOCH":"2026-03-06T05:36:28.902240","MEAN_MOTION":15.41363414,"ECCENTRICITY":0.00050009,"INCLINATION":97.8653,"RA_OF_ASC_NODE":65.0732,"ARG_OF_PERICENTER":31.6806,"MEAN_ANOMALY":328.474,"EPHEMERIS_TYPE":0,"CLASSIFICATION_TYPE":"U","NORAD_CAT_ID":46507,"ELEMENT_SET_NO":999,"REV_AT_EPOCH":29985,"BSTAR":0.00063111107,"MEAN_MOTION_DOT":0.00026313,"MEAN_MOTION_DDOT":0},{"OBJECT_NAME":"WILDTRACKCUBE-SIMBA","OBJECT_ID":"2021-022K","EPOCH":"2026-03-06T07:01:53.275872","MEAN_MOTION":16.39544551,"ECCENTRICITY":0.0005874,"INCLINATION":97.3721,"RA_OF_ASC_NODE":347.4784,"ARG_OF_PERICENTER":201.7073,"MEAN_ANOMALY":158.3978,"EPHEMERIS_TYPE":0,"CLASSIFICATION_TYPE":"U","NORAD_CAT_ID":47941,"ELEMENT_SET_NO":999,"REV_AT_EPOCH":27530,"BSTAR":0.00074904,"MEAN_MOTION_DOT":0.0875915,"MEAN_MOTION_DDOT":2.6401e-6},{"OBJECT_NAME":"GREENCUBE (IO-117)","OBJECT_ID":"2022-080E","EPOCH":"2026-03-06T03:40:17.821056","MEAN_MOTION":6.42583089,"ECCENTRICITY":0.00090284,"INCLINATION":70.1629,"RA_OF_ASC_NODE":334.0832,"ARG_OF_PERICENTER":311.936,"MEAN_ANOMALY":48.053,"EPHEMERIS_TYPE":0,"CLASSIFICATION_TYPE":"U","NORAD_CAT_ID":53109,"ELEMENT_SET_NO":999,"REV_AT_EPOCH":8544,"BSTAR":0,"MEAN_MOTION_DOT":-3.0e-8,"MEAN_MOTION_DDOT":0},{"OBJECT_NAME":"SITRO-AIS 5 (KATYS)","OBJECT_ID":"2023-091L","EPOCH":"2026-03-06T06:32:28.203360","MEAN_MOTION":15.26948581,"ECCENTRICITY":0.00134376,"INCLINATION":97.5183,"RA_OF_ASC_NODE":128.3205,"ARG_OF_PERICENTER":106.0067,"MEAN_ANOMALY":254.2653,"EPHEMERIS_TYPE":0,"CLASSIFICATION_TYPE":"U","NORAD_CAT_ID":57176,"ELEMENT_SET_NO":999,"REV_AT_EPOCH":14862,"BSTAR":0.00049044459,"MEAN_MOTION_DOT":0.00012944,"MEAN_MOTION_DDOT":0},{"OBJECT_NAME":"SITRO-AIS 6 (CHIRKIN)","OBJECT_ID":"2023-091AC","EPOCH":"2026-03-06T07:12:45.208800","MEAN_MOTION":15.24344558,"ECCENTRICITY":0.00142322,"INCLINATION":97.5188,"RA_OF_ASC_NODE":127.9578,"ARG_OF_PERICENTER":106.1674,"MEAN_ANOMALY":254.1131,"EPHEMERIS_TYPE":0,"CLASSIFICATION_TYPE":"U","NORAD_CAT_ID":57192,"ELEMENT_SET_NO":999,"REV_AT_EPOCH":14860,"BSTAR":0.00033926526,"MEAN_MOTION_DOT":8.254e-5,"MEAN_MOTION_DDOT":0},{"OBJECT_NAME":"SITRO-AIS 8 (ANOKHIN)","OBJECT_ID":"2023-091AD","EPOCH":"2026-03-06T07:48:13.793760","MEAN_MOTION":15.29211398,"ECCENTRICITY":0.00126039,"INCLINATION":97.5175,"RA_OF_ASC_NODE":129.5787,"ARG_OF_PERICENTER":103.4905,"MEAN_ANOMALY":256.774,"EPHEMERIS_TYPE":0,"CLASSIFICATION_TYPE":"U","NORAD_CAT_ID":57193,"ELEMENT_SET_NO":999,"REV_AT_EPOCH":14871,"BSTAR":0.00058374021,"MEAN_MOTION_DOT":0.00016526,"MEAN_MOTION_DDOT":0},{"OBJECT_NAME":"SITRO-AIS 7 (FARTUSHNIY)","OBJECT_ID":"2023-091AE","EPOCH":"2026-03-06T06:49:41.447136","MEAN_MOTION":15.24097172,"ECCENTRICITY":0.00140724,"INCLINATION":97.5187,"RA_OF_ASC_NODE":127.8143,"ARG_OF_PERICENTER":107.0832,"MEAN_ANOMALY":253.1948,"EPHEMERIS_TYPE":0,"CLASSIFICATION_TYPE":"U","NORAD_CAT_ID":57194,"ELEMENT_SET_NO":999,"REV_AT_EPOCH":14859,"BSTAR":0.00027574148,"MEAN_MOTION_DOT":6.643e-5,"MEAN_MOTION_DDOT":0},{"OBJECT_NAME":"SITRO-AIS 10 (BURDAEV)","OBJECT_ID":"2023-091AK","EPOCH":"2026-03-06T07:07:33.673728","MEAN_MOTION":15.34564874,"ECCENTRICITY":0.00083555,"INCLINATION":97.5189,"RA_OF_ASC_NODE":133.6387,"ARG_OF_PERICENTER":85.5767,"MEAN_ANOMALY":274.643,"EPHEMERIS_TYPE":0,"CLASSIFICATION_TYPE":"U","NORAD_CAT_ID":57199,"ELEMENT_SET_NO":999,"REV_AT_EPOCH":14896,"BSTAR":0.0006035927,"MEAN_MOTION_DOT":0.00020183,"MEAN_MOTION_DDOT":0},{"OBJECT_NAME":"SITRO-AIS 9 (SHCHUKIN)","OBJECT_ID":"2023-091AM","EPOCH":"2026-03-06T07:03:48.703680","MEAN_MOTION":15.34195808,"ECCENTRICITY":0.00085825,"INCLINATION":97.5189,"RA_OF_ASC_NODE":133.4374,"ARG_OF_PERICENTER":85.2935,"MEAN_ANOMALY":274.9288,"EPHEMERIS_TYPE":0,"CLASSIFICATION_TYPE":"U","NORAD_CAT_ID":57201,"ELEMENT_SET_NO":999,"REV_AT_EPOCH":14895,"BSTAR":0.00059867673,"MEAN_MOTION_DOT":0.00019785,"MEAN_MOTION_DDOT":0},{"OBJECT_NAME":"SITRO-AIS 12 (SMIRENNIY)","OBJECT_ID":"2023-091AQ","EPOCH":"2026-03-06T07:16:33.117312","MEAN_MOTION":15.34438662,"ECCENTRICITY":0.00082408,"INCLINATION":97.5199,"RA_OF_ASC_NODE":133.8534,"ARG_OF_PERICENTER":80.8431,"MEAN_ANOMALY":279.3743,"EPHEMERIS_TYPE":0,"CLASSIFICATION_TYPE":"U","NORAD_CAT_ID":57204,"ELEMENT_SET_NO":999,"REV_AT_EPOCH":14897,"BSTAR":0.00057997137,"MEAN_MOTION_DOT":0.00019309,"MEAN_MOTION_DDOT":0},{"OBJECT_NAME":"SITRO-AIS 11 (SHEFFER)","OBJECT_ID":"2023-091AU","EPOCH":"2026-03-06T06:39:01.497888","MEAN_MOTION":15.34779683,"ECCENTRICITY":0.00080675,"INCLINATION":97.5197,"RA_OF_ASC_NODE":134.0153,"ARG_OF_PERICENTER":80.7703,"MEAN_ANOMALY":279.4451,"EPHEMERIS_TYPE":0,"CLASSIFICATION_TYPE":"U","NORAD_CAT_ID":57208,"ELEMENT_SET_NO":999,"REV_AT_EPOCH":14898,"BSTAR":0.00065533364,"MEAN_MOTION_DOT":0.00022074,"MEAN_MOTION_DDOT":0},{"OBJECT_NAME":"SITRO-AIS 25","OBJECT_ID":"2024-039R","EPOCH":"2026-03-06T07:13:24.390336","MEAN_MOTION":14.92595761,"ECCENTRICITY":0.01457069,"INCLINATION":95.3942,"RA_OF_ASC_NODE":164.4222,"ARG_OF_PERICENTER":328.3049,"MEAN_ANOMALY":30.9463,"EPHEMERIS_TYPE":0,"CLASSIFICATION_TYPE":"U","NORAD_CAT_ID":59066,"ELEMENT_SET_NO":999,"REV_AT_EPOCH":10937,"BSTAR":0.00038516405,"MEAN_MOTION_DOT":4.839e-5,"MEAN_MOTION_DDOT":0},{"OBJECT_NAME":"SITRO-AIS 26","OBJECT_ID":"2024-039S","EPOCH":"2026-03-06T06:56:05.301600","MEAN_MOTION":14.92408851,"ECCENTRICITY":0.01460013,"INCLINATION":95.3943,"RA_OF_ASC_NODE":164.3315,"ARG_OF_PERICENTER":328.8187,"MEAN_ANOMALY":30.4435,"EPHEMERIS_TYPE":0,"CLASSIFICATION_TYPE":"U","NORAD_CAT_ID":59067,"ELEMENT_SET_NO":999,"REV_AT_EPOCH":10936,"BSTAR":0.00040630993,"MEAN_MOTION_DOT":5.085e-5,"MEAN_MOTION_DDOT":0}]
