NETSAT-4                
1 46504U 20068U   26064.95284296  .00021436  00000+0  53519-3 0  9999
2 46504  97.8639  65.1748 0005213 354.3518   5.7667 15.40187514299865
NETSAT-3                
1 46505U 20068V   26064.94002391  .00021950  00000+0  57244-3 0  9993
2 46505  97.8676  63.5251 0005618  11.7997 348.3378 15.38845736299782
NETSAT-1                
1 46506U 20068W   26064.96192194  .00016960  00000+0  55280-3 0  9990
2 46506  97.8743  59.0235 0006288  30.7972 329.3636 15.31881118299488
NETSAT-2                
1 46507U 20068X   26065.23366785  .00026313  00000+0  63111-3 0  9996
2 46507  97.8653  65.0732 0005000  31.6806 328.4740 15.41363414299857
WILDTRACKCUBE-SIMBA     
1 47941U 21022K   26065.29297773  .08759150  26401-5  74904-3 0  9997
2 47941  97.3721 347.4784 0005874 201.7073 158.3978 16.39544551275308
GREENCUBE (IO-117)      
1 53109U 22080E   26065.15298404 -.00000003  00000+0  00000+0 0  9994
2 53109  70.1629 334.0832 0009028 311.9360  48.0530  6.42583089 85446
SITRO-AIS 5 (KATYS)     
1 57176U 23091L   26065.27254865  .00012944  00000+0  49044-3 0  9992
2 57176  97.5183 128.3205 0013437 106.0067 254.2653 15.26948581148627
SITRO-AIS 6 (CHIRKIN)   
1 57192U 23091AC  26065.30052325  .00008254  00000+0  33927-3 0  9993
2 57192  97.5188 127.9578 0014232 106.1674 254.1131 15.24344558148607
SITRO-AIS 8 (ANOKHIN)   
1 57193U 23091AD  26065.32515965  .00016526  00000+0  58374-3 0  9994
2 57193  97.5175 129.5787 0012603 103.4905 256.7740 15.29211398148717
SITRO-AIS 7 (FARTUSHNIY)
1 57194U 23091AE  26065.28450749  .00006643  00000+0  27574-3 0  9995
2 57194  97.5187 127.8143 0014072 107.0832 253.1948 15.24097172148593
SITRO-AIS 10 (BURDAEV)  
1 57199U 23091AK  26065.29691752  .00020183  00000+0  60359-3 0  9995
2 57199  97.5189 133.6387 0008355  85.5767 274.6430 15.34564874148963
SITRO-AIS 9 (SHCHUKIN)  
1 57201U 23091AM  26065.29431370  .00019785  00000+0  59868-3 0  9996
2 57201  97.5189 133.4374 0008582  85.2935 274.9288 15.34195808148957
SITRO-AIS 12 (SMIRENNIY)
1 57204U 23091AQ  26065.30316108  .00019309  00000+0  57997-3 0  9995
2 57204  97.5199 133.8534 0008240  80.8431 279.3743 15.34438662148971
SITRO-AIS 11 (SHEFFER)  
1 57208U 23091AU  26065.27710067  .00022074  00000+0  65533-3 0  9995
2 57208  97.5197 134.0153 0008067  80.7703 279.4451 15.34779683148980
SITRO-AIS 25            
1 59066U 24039R   26065.30097674  .00004839  00000+0  38516-3 0  9998
2 59066  95.3942 164.4222 0145706 328.3049  30.9463 14.92595761109377
SITRO-AIS 26            
1 59067U 24039S   26065.28895025  .00005085  00000+0  40631-3 0  9997
2 59067  95.3943 164.3315 0146001 328.8187  30.4435 14.92408851109364
